#aV2009 11 14  0  0   .00000000      96 DD+AD WGS84 FIT  NGA
## 1557 518400.00000000   900.00000000 55149  .0000000000000
+   31     1  2  3  4  5  6  7  9 10 11 12 13 14 15 16 17 18
+         19 20 21 22 23 24 25 26 27 28 29 30 31 32  0  0  0
+          0  0  0  0  0  0  0  0  0  0  0  0  0  0  0  0  0
+          0  0  0  0  0  0  0  0  0  0  0  0  0  0  0  0  0
+          0  0  0  0  0  0  0  0  0  0  0  0  0  0  0  0  0
++         0  0  0  0  0  0  0  0  0  0  0  0  0  0  0  0  0
++         0  0  0  0  0  0  0  0  0  0  0  0  0  0  0  0  0
++         0  0  0  0  0  0  0  0  0  0  0  0  0  0  0  0  0
++         0  0  0  0  0  0  0  0  0  0  0  0  0  0  0  0  0
++         0  0  0  0  0  0  0  0  0  0  0  0  0  0  0  0  0
%c cc cc ccc ccc cccc cccc cccc cccc ccccc ccccc ccccc ccccc
%c cc cc ccc ccc cccc cccc cccc cccc ccccc ccccc ccccc ccccc
%f  0.0000000  0.000000000  0.00000000000  0.000000000000000
%f  0.0000000  0.000000000  0.00000000000  0.000000000000000
%i    0    0    0    0      0      0      0      0         0
%i    0    0    0    0      0      0      0      0         0
/*      NGA, ST. LOUIS,MO.                                  
/*   EPHEMERIS COMPUTED FROM  3 DAYS OF DATA                
/* CCCCCCCCCCCCCCCCCCCCCCCCCCCCCCCCCCCCCCCCCCCCCCCCCCCCCCCCC
/* CCCCCCCCCCCCCCCCCCCCCCCCCCCCCCCCCCCCCCCCCCCCCCCCCCCCCCCCC
*  2009 11 14 18  0   .00000000                                                 
P  1 -19325.046759  16512.397350   7415.318914    -65.072965                    
V  1   3726.875191  -9228.720839  29951.887321      -.021000                    
P  2 -13533.453228 -22546.275290  -5194.530484    191.669004                    
V  2    253.991209  -7097.895087  30115.744037       .043357                    
P  3  20117.550950  11035.559948 -14012.594352    474.547568                    
V  3 -17236.199754   2190.136341 -23257.168960       .051001                    
P  4  -5671.356735 -25121.258490   5478.388044   -359.055914                    
V  4   6110.766990   5372.983122  30475.040172      -.182253                    
P  5 -11108.698934 -10461.792511 -21747.492854    -44.685686                    
V  5  17101.489719 -21651.174962   1757.420819       .068897                    
P  6  16892.338665  13175.042309 -15583.898704    261.050545                    
V  6 -20296.541325    594.245361 -21156.036250       .019961                    
P  7  10727.131129 -12075.838785 -21065.623757      7.724674                    
V  7  10625.267480  24536.609140  -8811.668879      -.006873                    
P  9 -16842.021898  -7406.821355  18517.540178     88.494179                    
V  9  -8756.676507 -23282.950882 -16644.550612       .021453                    
P 10  -8210.918589 -13713.757726 -21324.052319    -28.303847                    
V 10  17588.465577 -20198.182218   6604.381759      -.008781                    
P 11  19267.427889   2109.683084  18055.197327    -29.190642                    
V 11  11557.072453  20693.268748 -14188.738679      -.019780                    
P 12 -19073.916113   4067.384655  18024.439580   -190.128211                    
V 12  13017.666141 -18789.172158  18189.723767       .052787                    
P 13  19429.353072  -7115.871017 -16786.048185    306.234789                    
V 13  20334.803622   5368.415447  21403.395160       .001917                    
P 14  -2908.829528  14407.773817  22259.359159    -24.533921                    
V 14 -27366.495921  -5181.256467   -346.821423       .048405                    
P 15 -24670.566413  -7660.539005  -6337.351656   -320.094045                    
V 15   8363.252618  -1765.865990 -30193.146908       .004278                    
P 16   4328.553117  16532.479640 -20217.767274     -8.469274                    
V 16 -17268.834959  19224.256196  12236.824464      -.041643                    
P 17   2069.587405 -15142.431119  21798.187199    102.318057                    
V 17  27137.731921   4483.428890    340.339261       .036163                    
P 18 -17438.217057  19708.614483  -1185.665180     27.607833                    
V 18  -1769.358479  -3834.198365 -31483.092632       .027637                    
P 19  24989.586730   8478.546693  -4099.928598      1.285995                    
V 19  -5665.056656   1465.720119 -30927.825550      -.019246                    
P 20  20075.221229  -9149.546325  14626.899163     67.632612                    
V 20  -9131.241925  16715.156644  22844.099266      -.008773                    
P 21  -8579.879638  16237.715082 -18677.152077    -21.364302                    
V 21 -10792.758295 -22238.661255 -14780.670788      -.023417                    
P 22  -9463.222574  22742.566918   9999.307137    186.360366                    
V 22 -10463.373076   7580.816595 -27676.217897      -.010081                    
P 23  26114.991289    -34.227870  -5696.209410    386.033734                    
V 23   6721.456863   3247.260085  30651.690941      -.005687                    
P 24 -15483.106154   1916.021835 -21361.636601    236.553685                    
V 24  -8437.224741 -26128.693278   4000.331351       .030201                    
P 25  13613.118148  -5892.522350 -21683.458886     18.000565                    
V 25  12773.730893  25293.547530   1308.406122       .163693                    
P 26 -12936.410274  10783.403718  20129.442495      3.574958                    
V 26 -25899.929534  -5943.567766 -12657.402400      -.019254                    
P 27 -17846.956793 -10289.549731  17485.206261     99.848728                    
V 27  -7710.599485 -19368.795510 -20021.983115       .031993                    
P 28  11392.631935 -22481.150979   8296.656468    -25.400571                    
V 28   8389.093029  -6025.728997 -29739.553464       .001855                    
P 29 -21838.175144   6016.988660 -13742.853484     74.238180                    
V 29 -16984.415222  -5216.582506  24584.554361       .029138                    
P 30 -19170.807479  15724.114212   9053.196999    193.216777                    
V 30   4673.737507 -11498.892549  28709.389314       .031504                    
P 31   7290.902949  25195.165678   3851.006331    -61.077696                    
V 31  -3982.790065  -3399.420385  31670.415381       .008375                    
P 32  18166.151575    608.752775  19639.716794    158.000770                    
V 32 -15561.399910  18614.883900  14385.036804      -.075947                    
EOF
